[
  {
    "locationId": "106fc447-cd13-4d65-97f9-d1cf0917a7ec",
    "zipCode": "022",
    "state": "MA"
  },
  {
    "locationId": "37e9c0d0-1142-4e2f-9f74-fd44bb4bf598",
    "zipCode": "021",
    "state": "MA"
  },
  {
    "locationId": "d87d2b4d-53a4-4771-b418-47b211c3e6e1",
    "zipCode": "021",
    "state": "MA"
  },
  {
    "locationId": "192475ce-802e-4773-a337-d6365ee0cd9b",
    "zipCode": 100,
    "state": "NY"
  },
  {
    "locationId": "b758619a-80c8-4a92-82f8-cdf96891ff28",
    "zipCode": 100,
    "state": "NY"
  },
  {
    "locationId": "544be96a-67f6-4e7d-b9b9-f860a34e3d27",
    "zipCode": 100,
    "state": "NY"
  },
  {
    "locationId": "615d075e-f9b9-4f68-899e-9ef6c0050880",
    "zipCode": 100,
    "state": "NY"
  },
  {
    "locationId": "fd766dc1-db1b-4110-9508-12738db921e9",
    "zipCode": 100,
    "state": "NY"
  },
  {
    "locationId": "04526813-a330-4ff4-9520-6d744d0c5c68",
    "zipCode": 972,
    "state": "OR"
  },
  {
    "locationId": "0f7c2fcf-2513-4b72-9590-0f8c67ad5761",
    "zipCode": 100,
    "state": "NY"
  },
  {
    "locationId": "c267d21b-9b7a-42ac-abcf-2a6df59d7693",
    "zipCode": 125,
    "state": "NY"
  },
  {
    "locationId": "e1849bd2-e88c-4437-b0c7-ee0c6f1c7c4e",
    "zipCode": 100,
    "state": "NY"
  },
  {
    "locationId": "8b535136-b22b-456a-9851-5fa68f5bb1cb",
    "zipCode": 100,
    "state": "NY"
  },
  {
    "locationId": "63ed4f98-68b5-4c90-a93a-02c1bd4791a7",
    "zipCode": 100,
    "state": "NY"
  },
  {
    "locationId": "dbbe5f62-719a-4d15-aba0-eac4e6935931",
    "zipCode": 100,
    "state": "NY"
  },
  {
    "locationId": "a6c9f770-15d5-4251-b519-9189c363c943",
    "zipCode": 105,
    "state": "NY"
  }
]